METEOSAT-9 (MSG-2)      
1 28912U 05049B   18258.57281578  .00000000  00000-0  00000+0 0  9996
2 28912   3.0990  71.6369 0000709  29.9999 102.5153  1.00278001 46680
EUTELSAT 172A (GE-23)   
1 28924U 05052A   18257.74527323 -.00000013  00000-0  00000-0 0  9998
2 28924   0.0682  14.1790 0005757 157.7445 264.0274  1.00272905 23941
ECHOSTAR 10             
1 28935U 06003A   18258.19966175 -.00000078  00000-0  00000+0 0  9999
2 28935   0.0326 295.9913 0001377 223.5674 156.2235  1.00272885 46114
HIMAWARI-7 (MTSAT-2)    
1 28937U 06004A   18258.24383434 -.00000265  00000-0  00000+0 0  9997
2 28937   0.0806 283.7160 0003844 247.9088  55.3554  1.00270188 45956
SPAINSAT                
1 28945U 06007A   18258.09991649 -.00000238  00000-0  00000+0 0  9995
2 28945   0.0335 229.2465 0004360 321.3657 169.3820  1.00272013 45836
EUTELSAT HOT BIRD 13E   
1 28946U 06007B   18257.98083301  .00000065  00000-0  00000+0 0  9997
2 28946   0.0881 257.5735 0006834 284.4768 177.9500  1.00273914 45906
JCSAT-5A                
1 29045U 06010A   18258.12063473 -.00000350  00000-0  00000+0 0  9995
2 29045   0.0272 241.5280 0001689 290.4683 357.5235  1.00272522 45540
ASTRA 1KR               
1 29055U 06012A   18257.78627407  .00000097  00000-0  00000+0 0  9999
2 29055   0.0732 272.1324 0004347 286.2384  97.5615  1.00272509 45342
GOES 13                 
1 29155U 06018A   18258.18276713 -.00000306  00000-0  00000+0 0  9995
2 29155   0.0446 136.9519 0007539 285.1023 298.0254  1.00274759 45124
EUTELSAT 113 WEST A     
1 29162U 06020A   18257.33255865 -.00000061  00000-0  00000+0 0  9995
2 29162   0.0268 292.7984 0002926 251.2819 175.9195  1.00270866 45068
THAICOM 5               
1 29163U 06020B   18257.87860715 -.00000144  00000-0  00000-0 0  9994
2 29163   0.0242 235.0190 0004269 330.0763 183.4924  1.00272770 45099
GALAXY 16 (G-16)        
1 29236U 06023A   18258.57845122 -.00000149  00000-0  00000+0 0  9995
2 29236   0.0157 243.5820 0002726 281.6333 298.5172  1.00270757 44870
EUTELSAT HOT BIRD 13B   
1 29270U 06032A   18258.14395716  .00000064  00000-0  00000+0 0  9990
2 29270   0.1073 315.2551 0002014 221.9782 241.6339  1.00270770 44463
JCSAT-3A                
1 29272U 06033A   18257.92957760 -.00000368  00000-0  00000-0 0  9990
2 29272   0.0157 215.5261 0001964 306.8473 294.1163  1.00273522 19334
SYRACUSE 3B             
1 29273U 06033B   18258.19216038 -.00000066  00000-0  00000+0 0  9991
2 29273   0.0187 165.3787 0003633   0.7768 251.9191  1.00269638 44350
KOREASAT 5 (MUGUNGWHA 5)
1 29349U 06034A   18258.20641159 -.00000380  00000-0  00000+0 0  9993
2 29349   0.0127 140.4986 0001906  35.0560   5.9318  1.00273051 44234
DIRECTV 9S              
1 29494U 06043A   18257.61869403 -.00000137  00000-0  00000+0 0  9992
2 29494   0.0132 170.6396 0002919 358.1384 306.3949  1.00271964 43709
OPTUS D1                
1 29495U 06043B   18258.24329271 -.00000133  00000-0  00000+0 0  9993
2 29495   0.0373 283.4697 0003455 245.2064  73.0595  1.00272450 43741
XM-4 (BLUES)            
1 29520U 06049A   18257.61581524 -.00000046  00000-0  00000-0 0  9993
2 29520   0.0523 321.1386 0000146 157.0171 341.7989  1.00271556 23088
BADR-4                  
1 29526U 06051A   18258.14657425  .00000122  00000-0  00000+0 0  9998
2 29526   0.0565 354.5940 0001769 226.6044 211.6039  1.00273838 43493
FENGYUN 2D              
1 29640U 06053A   18258.23782291 -.00000381  00000-0  10000-3 0  9990
2 29640   5.2762  62.1829 0006423 299.0422 202.3289  1.00273139 43162
WILDBLUE-1              
1 29643U 06054A   18258.56441181 -.00000071  00000-0  00000+0 0  9991
2 29643   0.0255 236.3515 0001838 289.5141 280.6221  1.00271854 43155
AMC-18                  
1 29644U 06054B   18258.55280771  .00000082  00000-0  00000+0 0  9998
2 29644   0.0454 285.0765 0002262 198.9185 290.4811  1.00271521 43164
MEASAT-3                
1 29648U 06056A   18258.08784832 -.00000264  00000-0  00000+0 0  9992
2 29648   0.0374 138.3966 0003593  22.4398 316.2946  1.00272744 43150
INSAT-4B                
1 30793U 07007A   18258.57899147 -.00000376  00000-0  00000+0 0  9996
2 30793   0.0348 266.5331 0003920 257.8713 149.7919  1.00272017 42165
SKYNET 5A               
1 30794U 07007B   18258.57000981 -.00000293  00000-0  00000+0 0  9995
2 30794   0.0677  11.9191 0004700 177.8551 105.1169  1.00271464 42253
ANIK F3                 
1 31102U 07009A   18258.57602192 -.00000023  00000-0  00000+0 0  9994
2 31102   0.0167 200.6276 0001799 307.4999 295.0074  1.00270427 41941
ASTRA 1L                
1 31306U 07016A   18257.78618684  .00000097  00000-0  00000+0 0  9993
2 31306   0.0830 297.4888 0002246 288.2341  70.1863  1.00272144 41634
GALAXY 17 (G-17)        
1 31307U 07016B   18258.48215955 -.00000196  00000-0  00000+0 0  9997
2 31307   0.0428   1.0247 0003200 171.6942 264.2539  1.00272354 41683
ZHONGXING-6B            
1 31800U 07031A   18258.53035253 -.00000383  00000-0  00000+0 0  9997
2 31800   0.0220 252.8869 0003037 280.2001 127.7717  1.00275055 41073
DIRECTV 10              
1 31862U 07032A   18258.30178410 -.00000125  00000-0  00000+0 0  9998
2 31862   0.0170 274.0108 0000337 301.4071 144.5799  1.00270075 41018
SPACEWAY 3              
1 32018U 07036A   18258.48137442 -.00000174  00000-0  00000+0 0  9999
2 32018   0.0043   9.9444 0000252  83.5847 339.1964  1.00272922 40731
BSAT-3A                 
1 32019U 07036B   18257.71248970 -.00000374  00000-0  00000-0 0  9997
2 32019   0.0713 247.3157 0004484 311.9836 160.6865  1.00271679 22119
INSAT-4CR               
1 32050U 07037A   18258.59747622  .00000104  00000-0  00000+0 0  9997
2 32050   0.1953  99.6188 0003331 102.0261  55.7957  1.00270331 40451
OPTUS D2                
1 32252U 07044A   18258.17169816 -.00000206  00000-0  00000+0 0  9990
2 32252   0.0191 166.1591 0003731   5.5031  36.2322  1.00269925 40044
INTELSAT 11 (IS-11)     
1 32253U 07044B   18258.49177368 -.00000290  00000-0  00000+0 0  9990
2 32253   0.0322 218.5583 0001427 302.5743 327.3282  1.00272714 40133
STAR ONE C1             
1 32293U 07056A   18258.19691670 -.00000299  00000-0  00000+0 0  9990
2 32293   0.0327 105.4972 0003147  78.4649 176.0390  1.00273159 39718
SKYNET 5B               
1 32294U 07056B   18258.50529524  .00000120  00000-0  00000+0 0  9996
2 32294   0.0754  17.0988 0003892 164.1171  20.1927  1.00272990 39793
ASTRA 4A (SIRIUS 4)     
1 32299U 07057A   18258.35768493  .00000010  00000-0  00000+0 0  9993
2 32299   0.0457 301.8529 0002899 224.8553 321.1312  1.00272042 39562
HORIZONS-2              
1 32388U 07063B   18258.54563228 -.00000204  00000-0  00000+0 0  9995
2 32388   0.0163 171.3805 0002727 354.9486 109.3966  1.00269777 39485
THURAYA-3               
1 32404U 08001A   18258.08924409 -.00000322  00000-0  00000+0 0  9999
2 32404   3.8783 359.3446 0004910 169.3549 315.9339  1.00272958 39132
EXPRESS-AM33            
1 32478U 08003A   18257.94521777 -.00000303  00000-0  00000-0 0  9997
2 32478   0.0390 295.5756 0001114 339.4427 155.5902  1.00269518 39210
THOR 5                  
1 32487U 08006A   18258.18729845 -.00000032  00000-0  00000+0 0  9991
2 32487   0.0343 244.7302 0002321 285.4562 250.5889  1.00271572 38786
KIZUNA (WINDS)          
1 32500U 08007A   18258.52884890 -.00000280  00000-0  00000+0 0  9993
2 32500   1.8046  87.6014 0002302  86.0770 154.1594  1.00272098 38630
AMC-14                  
1 32708U 08011A   18258.14482953  .00000075  00000-0  00000+0 0  9991
2 32708  19.9147  56.1900 0036249   4.8826   3.1342  1.00274300 39705
DIRECTV 11              
1 32729U 08013A   18258.24004891 -.00000148  00000-0  00000+0 0  9990
2 32729   0.0039  65.0015 0000131  35.6477 240.7243  1.00272401 38539
ICO G1                  
1 32763U 08016A   18257.83564958 -.00000192  00000-0  00000-0 0  9990
2 32763   3.6833   1.3931 0002372 175.7754  24.5809  1.00272765 38181
VINASAT-1               
1 32767U 08018A   18257.65136750 -.00000352  00000-0  00000-0 0  9999
2 32767   0.0418 325.9104 0001590 208.5418 185.5523  1.00273211 38217
STAR ONE C2             
1 32768U 08018B   18257.21355798 -.00000289  00000-0  00000-0 0  9996
2 32768   0.0183 157.0013 0002980  17.7224 185.2817  1.00272160 38281
TIANLIAN 1-01           
1 32779U 08019A   18258.15721701 -.00000158  00000-0  10000-3 0  9993
2 32779   2.7747  73.9292 0031633 234.5374 182.1273  1.00267821 38072
AMOS-3                  
1 32794U 08022A   18258.19216038 -.00000057  00000-0  00000+0 0  9993
2 32794   0.0201 166.1414 0000808 327.8442 285.1770  1.00272907 38053
GALAXY 18 (G-18)        
1 32951U 08024A   18257.36038272  .00000002  00000-0  00000-0 0  9990
2 32951   0.0090 151.6724 0002930  16.2583 192.0787  1.00271998 17500
CHINASAT 9 (ZX 9)       
1 33051U 08028A   18258.08793556 -.00000270  00000-0  00000+0 0  9996
2 33051   0.0120 235.6460 0003869 294.3748 307.8332  1.00270297 37617
SKYNET 5C               
1 33055U 08030A   18258.42484560 -.00000161  00000-0  00000+0 0  9992
2 33055   0.0587 349.3754 0004053 182.5824 317.5190  1.00271545 37501
TURKSAT 3A              
1 33056U 08030B   18257.85188208  .00000123  00000-0  00000-0 0  9997
2 33056   0.0426  88.1221 0004508  61.1595 193.1701  1.00269393 23951
INTELSAT 25 (IS-25)     
1 33153U 08034A   18257.10681191 -.00000248  00000-0  00000-0 0  9995
2 33153   0.0108 167.6135 0001532  36.0413 156.3402  1.00271722 37332
BADR-6                  
1 33154U 08034B   18258.14648700  .00000122  00000-0  00000+0 0  9999
2 33154   0.0575  30.5882 0003082 110.1863 291.9912  1.00271096 37351
ECHOSTAR 11             
1 33207U 08035A   18257.32433118 -.00000080  00000-0  00000-0 0  9998
2 33207   0.0353 264.3819 0002694 258.7853 196.8439  1.00271869 22851
SUPERBIRD-C2            
1 33274U 08038A   18258.24383448 -.00000273  00000-0  00000+0 0  9990
2 33274   0.0403 262.4416 0001200 294.8159  28.6165  1.00273903 36983
